Results
*******************************************************************************
 Revised: Oct 03, 2018            Aegaeon / (Saturn)                        653

 Radii (IAU2015): 0.7 x 0.25 x 0.2 km

 Irregular Saturnian satellite ( < 1 km radius). IAUC 9023.
*******************************************************************************


*******************************************************************************
Ephemeris / API_USER Wed Apr 22 07:33:10 2026 Pasadena, USA      / Horizons    
*******************************************************************************
Target body name: Aegaeon (653)                   {source: sat415_merged_DE437}
Center body name: Earth (399)                     {source: sat415_merged_DE437}
Center-site name: GEOCENTRIC
*******************************************************************************
Start time      : A.D. 2020-Jan-01 00:00:00.0000 UT      
Stop  time      : A.D. 2020-Dec-20 00:00:00.0000 UT      
Step-size       : 1440 minutes
*******************************************************************************
Target pole/equ : undefined
Target radii    : .7, .25, .200 km                {Equator_a, b, pole_c}       
Center geodetic : 0.0, 0.0, -6378.137             {E-lon(deg),Lat(deg),Alt(km)}
Center cylindric: 0.0, 0.0, 0.0                   {E-lon(deg),Dxy(km),Dz(km)}
Center pole/equ : ITRF93                          {East-longitude positive}
Center radii    : 6378.137, 6378.137, 6356.752 km {Equator_a, b, pole_c}       
Target primary  : Saturn
Vis. interferer : MOON (R_eq= 1737.400) km        {source: DE441}
Rel. light bend : Sun                             {source: sat415_merged_DE437}
Rel. lght bnd GM: 1.3271E+11 km^3/s^2                                          
Atmos refraction: NO (AIRLESS)
RA format       : HMS
Time format     : CAL 
Calendar mode   : Mixed Julian/Gregorian
EOP file        : eop.260421.p260718                                           
EOP coverage    : DATA-BASED 1962-JAN-20 TO 2026-APR-21. PREDICTS-> 2026-JUL-17
Units conversion: 1 au= 149597870.700 km, c= 299792.458 km/s, 1 day= 86400.0 s 
Table cut-offs 1: Elevation (-90.0deg=NO ),Airmass (>38.000=NO), Daylight (NO )
Table cut-offs 2: Solar elongation (  0.0,180.0=NO ),Local Hour Angle( 0.0=NO )
Table cut-offs 3: RA/DEC angular rate (     0.0=NO )                           
**************************************************************************************************************************
 Date__(UT)__HR:MN     R.A._____(ICRF)_____DEC    APmag   S-brt             delta      deldot     S-O-T /r     S-T-O  Cnst
**************************************************************************************************************************
$$SOE
 2020-Feb-29 00:00     19 59 30.12 -20 37 09.2     n.a.    n.a.  10.7446742723256  -5.6600950   41.8003 /L    3.7727   Sgr
 2020-Mar-01 00:00     19 59 55.84 -20 35 56.3     n.a.    n.a.  10.7346390015330 -15.5090369   42.7021 /L    3.8422   Sgr
 2020-Mar-02 00:00     20 00 22.04 -20 34 59.1     n.a.    n.a.  10.7225815916476 -32.9998259   43.6024 /L    3.9063   Sgr
 2020-Mar-03 00:00     20 00 45.37 -20 34 03.3     n.a.    n.a.  10.7096222755833 -26.5420969   44.5131 /L    3.9695   Sgr
 2020-Mar-04 00:00     20 01 07.32 -20 32 53.0     n.a.    n.a.  10.6981918690627  -8.6242762   45.4278 /L    4.0363   Sgr
 2020-Mar-05 00:00     20 01 31.49 -20 31 39.7     n.a.    n.a.  10.6875637394802 -12.8017398   46.3331 /L    4.1028   Sgr
 2020-Mar-06 00:00     20 01 56.96 -20 30 41.4     n.a.    n.a.  10.6751959544340 -31.9861185   47.2337 /L    4.1641   Sgr
 2020-Mar-07 00:00     20 02 19.94 -20 29 49.4     n.a.    n.a.  10.6614145410694 -31.4311268   48.1436 /L    4.2230   Sgr
 2020-Mar-08 00:00     20 02 40.78 -20 28 44.3     n.a.    n.a.  10.6488216964671 -12.7194510   49.0603 /L    4.2849   Sgr
 2020-Mar-09 00:00     20 03 03.30 -20 27 31.9     n.a.    n.a.  10.6375108380764 -10.8332597   49.9697 /L    4.3480   Sgr
 2020-Mar-10 00:00     20 03 27.76 -20 26 32.5     n.a.    n.a.  10.6249007798773 -29.7983526   50.8718 /L    4.4062   Sgr
 2020-Mar-11 00:00     20 03 50.38 -20 25 43.5     n.a.    n.a.  10.6104899672623 -35.2386539   51.7810 /L    4.4609   Sgr
 2020-Mar-12 00:00     20 04 10.26 -20 24 44.2     n.a.    n.a.  10.5967879485577 -17.6571713   52.6996 /L    4.5177   Sgr
 2020-Mar-13 00:00     20 04 31.07 -20 23 34.1     n.a.    n.a.  10.5846998416197  -9.9290897   53.6135 /L    4.5766   Sgr
 2020-Mar-14 00:00     20 04 54.26 -20 22 33.5     n.a.    n.a.  10.5718660312904 -26.7888751   54.5183 /L    4.6317   Sgr
 2020-Mar-15 00:00     20 05 16.41 -20 21 46.7     n.a.    n.a.  10.5570085267357 -37.7066154   55.4275 /L    4.6822   Sgr
 2020-Mar-16 00:00     20 05 35.48 -20 20 53.6     n.a.    n.a.  10.5422913093177 -23.0589623   56.3475 /L    4.7337   Sgr
 2020-Mar-17 00:00     20 05 54.60 -20 19 47.1     n.a.    n.a.  10.5293414079829 -10.2927092   57.2662 /L    4.7879   Sgr
 2020-Mar-18 00:00     20 06 16.27 -20 18 46.0     n.a.    n.a.  10.5162595756033 -23.3738635   58.1749 /L    4.8395   Sgr
 2020-Mar-19 00:00     20 06 37.77 -20 18 00.5     n.a.    n.a.  10.5011210613652 -38.6929470   59.0847 /L    4.8858   Sgr
 2020-Mar-20 00:00     20 06 56.14 -20 17 13.5     n.a.    n.a.  10.4855267153609 -28.4774092   60.0059 /L    4.9318   Sgr
 2020-Mar-21 00:00     20 07 13.63 -20 16 12.0     n.a.    n.a.  10.4716627308898 -11.9757076   60.9291 /L    4.9808   Sgr
 2020-Mar-22 00:00     20 07 33.56 -20 15 11.2     n.a.    n.a.  10.4582817552150 -19.9862307   61.8424 /L    5.0284   Cap
 2020-Mar-23 00:00     20 07 54.20 -20 14 26.5     n.a.    n.a.  10.4430058033212 -38.1868626   62.7535 /L    5.0706   Cap
 2020-Mar-24 00:00     20 08 11.92 -20 13 45.1     n.a.    n.a.  10.4267117548634 -33.4506240   63.6754 /L    5.1110   Cap
 2020-Mar-25 00:00     20 08 27.89 -20 12 49.7     n.a.    n.a.  10.4119260660272 -14.8866008   64.6025 /L    5.1542   Cap
 2020-Mar-26 00:00     20 08 45.92 -20 11 50.3     n.a.    n.a.  10.3981785256848 -17.0449994   65.5210 /L    5.1974   Cap
 2020-Mar-27 00:00     20 09 05.43 -20 11 06.0     n.a.    n.a.  10.3828762945173 -36.3223657   66.4341 /L    5.2354   Cap
 2020-Mar-28 00:00     20 09 22.52 -20 10 29.6     n.a.    n.a.  10.3660845433663 -37.5605916   67.3563 /L    5.2702   Cap
 2020-Mar-29 00:00     20 09 37.12 -20 09 41.1     n.a.    n.a.  10.3504169451641 -18.8076819   68.2867 /L    5.3073   Cap
 2020-Mar-30 00:00     20 09 53.15 -20 08 44.4     n.a.    n.a.  10.3362281537611 -14.9191811   69.2105 /L    5.3455   Cap
 2020-Mar-31 00:00     20 10 11.28 -20 08 00.3     n.a.    n.a.  10.3209691285107 -33.3663676   70.1264 /L    5.3791   Cap
 2020-Apr-01 00:00     20 10 27.69 -20 07 28.1     n.a.    n.a.  10.3038873927624 -40.4726800   71.0489 /L    5.4085   Cap
 2020-Apr-02 00:00     20 10 41.09 -20 06 47.1     n.a.    n.a.  10.2874230903148 -23.4184629   71.9818 /L    5.4392   Cap
 2020-Apr-03 00:00     20 10 55.10 -20 05 54.5     n.a.    n.a.  10.2727210367452 -13.8876085   72.9109 /L    5.4718   Cap
 2020-Apr-04 00:00     20 11 11.59 -20 05 10.8     n.a.    n.a.  10.2575302112077 -29.6852222   73.8305 /L    5.5010   Cap
 2020-Apr-05 00:00     20 11 27.22 -20 04 42.0     n.a.    n.a.  10.2403560262677 -41.9656679   74.7537 /L    5.5250   Cap
 2020-Apr-06 00:00     20 11 39.57 -20 04 08.5     n.a.    n.a.  10.2232224836713 -28.3209134   75.6884 /L    5.5492   Cap
 2020-Apr-07 00:00     20 11 51.62 -20 03 21.3     n.a.    n.a.  10.2079511876728 -14.1084527   76.6228 /L    5.5758   Cap
 2020-Apr-08 00:00     20 12 06.25 -20 02 38.6     n.a.    n.a.  10.1928126964816 -25.7053715   77.5470 /L    5.6002   Cap
 2020-Apr-09 00:00     20 12 20.92 -20 02 12.3     n.a.    n.a.  10.1757191176624 -41.9517123   78.4716 /L    5.6190   Cap
 2020-Apr-10 00:00     20 12 32.35 -20 01 46.1     n.a.    n.a.  10.1580777500506 -33.0820049   79.4079 /L    5.6367   Cap
 2020-Apr-11 00:00     20 12 42.55 -20 01 05.4     n.a.    n.a.  10.1422069296877 -15.6080222   80.3476 /L    5.6569   Cap
 2020-Apr-12 00:00     20 12 55.14 -20 00 24.5     n.a.    n.a.  10.1270706237873 -21.8704143   81.2776 /L    5.6761   Cap
 2020-Apr-13 00:00     20 13 08.65 -20 00 00.1     n.a.    n.a.  10.1101951693386 -40.4817890   82.2046 /L    5.6898   Cap
 2020-Apr-14 00:00     20 13 19.23 -19 59 40.6     n.a.    n.a.  10.0922330196518 -37.2716510   83.1426 /L    5.7009   Cap
 2020-Apr-15 00:00     20 13 27.73 -19 59 07.5     n.a.    n.a.  10.0757705506836 -18.2676561   84.0873 /L    5.7143   Cap
 2020-Apr-16 00:00     20 13 38.14 -19 58 29.5     n.a.    n.a.  10.0605682314995 -18.5874217   85.0239 /L    5.7279   Cap
 2020-Apr-17 00:00     20 13 50.25 -19 58 06.4     n.a.    n.a.  10.0440109527181 -37.7312372   85.9545 /L    5.7365   Cap
 2020-Apr-18 00:00     20 13 59.99 -19 57 53.0     n.a.    n.a.  10.0259331661569 -40.4977384   86.8941 /L    5.7412   Cap
 2020-Apr-19 00:00     20 14 06.96 -19 57 28.1     n.a.    n.a.  10.0089344421879 -21.8390735   87.8433 /L    5.7475   Cap
 2020-Apr-20 00:00     20 14 15.14 -19 56 54.2     n.a.    n.a.  9.99359582835341 -16.1900133   88.7867 /L    5.7550   Cap
 2020-Apr-21 00:00     20 14 25.58 -19 56 32.5     n.a.    n.a.  9.97741839366654 -33.9859634   89.7218 /L    5.7583   Cap
 2020-Apr-22 00:00     20 14 34.43 -19 56 24.1     n.a.    n.a.  9.95943584239402 -42.4529871   90.6632 /L    5.7569   Cap
 2020-Apr-23 00:00     20 14 40.04 -19 56 07.8     n.a.    n.a.  9.94200585850244 -25.9722091   91.6160 /L    5.7558   Cap
 2020-Apr-24 00:00     20 14 46.00 -19 55 39.3     n.a.    n.a.  9.92647315134346 -14.9103373   92.5663 /L    5.7568   Cap
 2020-Apr-25 00:00     20 14 54.54 -19 55 19.0     n.a.    n.a.  9.91070013218015 -29.6153088   93.5066 /L    5.7547   Cap
 2020-Apr-26 00:00     20 15 02.39 -19 55 14.7     n.a.    n.a.  9.89301544667660 -42.9457956   94.4500 /L    5.7472   Cap
 2020-Apr-27 00:00     20 15 06.81 -19 55 07.0     n.a.    n.a.  9.87530402607502 -30.2536234   95.4057 /L    5.7389   Cap
